[
    {
        "Altitude(m)": 622200.1492423101,
        "Argument of Periapsis(deg)": 0.0,
        "Eccentricity": 0.0,
        "Inclination(deg)": 60.0,
        "Latitude(deg)": -52.1626542616227,
        "Longitude(deg)": -102.63928559692042,
        "Mean Anomaly(deg)": 294.5455,
        "RAAN(deg)": 45.0,
        "Satellite Name": "Test1 216",
        "Satellite Number": 216,
        "Semi-Major Axis(m)": 6980739.136638005,
        "Time(s)": 0
    },
    {
        "Altitude(m)": 622058.3172649249,
        "Argument of Periapsis(deg)": 0.00010418945913296404,
        "Eccentricity": 0.0,
        "Inclination(deg)": 60.0,
        "Latitude(deg)": -51.799404312007475,
        "Longitude(deg)": -101.8712252474762,
        "Mean Anomaly(deg)": 295.1656061454619,
        "RAAN(deg)": 44.99957995086026,
        "Satellite Name": "Test1 216",
        "Satellite Number": 216,
        "Semi-Major Axis(m)": 6980739.136638005,
        "Time(s)": 10
    },
    {
        "Altitude(m)": 621913.7519864707,
        "Argument of Periapsis(deg)": 0.0002083789182659281,
        "Eccentricity": 0.0,
        "Inclination(deg)": 60.0,
        "Latitude(deg)": -51.43064275901571,
        "Longitude(deg)": -101.11614374410641,
        "Mean Anomaly(deg)": 295.78571229092364,
        "RAAN(deg)": 44.99915990172052,
        "Satellite Name": "Test1 216",
        "Satellite Number": 216,
        "Semi-Major Axis(m)": 6980739.136638005,
        "Time(s)": 20
    },
    {
        "Altitude(m)": 621766.509846169,
        "Argument of Periapsis(deg)": 0.00031256837739889213,
        "Eccentricity": 0.0,
        "Inclination(deg)": 60.0,
        "Latitude(deg)": -51.05652672437944,
        "Longitude(deg)": -100.37385138905,
        "Mean Anomaly(deg)": 296.4058184363855,
        "RAAN(deg)": 44.99873985258077,
        "Satellite Name": "Test1 216",
        "Satellite Number": 216,
        "Semi-Major Axis(m)": 6980739.136638005,
        "Time(s)": 30
    },
    {
        "Altitude(m)": 621616.6482996547,
        "Argument of Periapsis(deg)": 0.0004167578365318562,
        "Eccentricity": 0.0,
        "Inclination(deg)": 60.0,
        "Latitude(deg)": -50.67720963927838,
        "Longitude(deg)": -99.64415071890477,
        "Mean Anomaly(deg)": 297.02592458184733,
        "RAAN(deg)": 44.99831980344103,
        "Satellite Name": "Test1 216",
        "Satellite Number": 216,
        "Semi-Major Axis(m)": 6980739.136638005,
        "Time(s)": 40
    },
    {
        "Altitude(m)": 621464.2257943753,
        "Argument of Periapsis(deg)": 0.0005209472956648203,
        "Eccentricity": 0.0,
        "Inclination(deg)": 60.0,
        "Latitude(deg)": -50.292841217333475,
        "Longitude(deg)": -98.92683855448475,
        "Mean Anomaly(deg)": 297.6460307273092,
        "RAAN(deg)": 44.99789975430129,
        "Satellite Name": "Test1 216",
        "Satellite Number": 216,
        "Semi-Major Axis(m)": 6980739.136638005,
        "Time(s)": 50
    },
    {
        "Altitude(m)": 621309.3017445278,
        "Argument of Periapsis(deg)": 0.0006251367547977843,
        "Eccentricity": 0.0,
        "Inclination(deg)": 60.0,
        "Latitude(deg)": -49.90356744215594,
        "Longitude(deg)": -98.22170646845271,
        "Mean Anomaly(deg)": 298.266136872771,
        "RAAN(deg)": 44.997479705161545,
        "Satellite Name": "Test1 216",
        "Satellite Number": 216,
        "Semi-Major Axis(m)": 6980739.136638005,
        "Time(s)": 60
    },
    {
        "Altitude(m)": 621151.9365055971,
        "Argument of Periapsis(deg)": 0.0007293262139307483,
        "Eccentricity": 0.0,
        "Inclination(deg)": 60.0,
        "Latitude(deg)": -49.50953056804758,
        "Longitude(deg)": -97.52854118500974,
        "Mean Anomaly(deg)": 298.88624301823285,
        "RAAN(deg)": 44.9970596560218,
        "Satellite Name": "Test1 216",
        "Satellite Number": 216,
        "Semi-Major Axis(m)": 6980739.136638005,
        "Time(s)": 70
    },
    {
        "Altitude(m)": 620992.1913484388,
        "Argument of Periapsis(deg)": 0.0008335156730637124,
        "Eccentricity": 0.0,
        "Inclination(deg)": 60.0,
        "Latitude(deg)": -49.11086913252028,
        "Longitude(deg)": -96.84712642634219,
        "Mean Anomaly(deg)": 299.50634916369467,
        "RAAN(deg)": 44.996639606882056,
        "Satellite Name": "Test1 216",
        "Satellite Number": 216,
        "Semi-Major Axis(m)": 6980739.136638005,
        "Time(s)": 80
    },
    {
        "Altitude(m)": 620830.1284329654,
        "Argument of Periapsis(deg)": 0.0009377051321966765,
        "Eccentricity": 0.0,
        "Inclination(deg)": 60.0,
        "Latitude(deg)": -48.7077179793747,
        "Longitude(deg)": -96.17724318222695,
        "Mean Anomaly(deg)": 300.1264553091565,
        "RAAN(deg)": 44.996219557742315,
        "Satellite Name": "Test1 216",
        "Satellite Number": 216,
        "Semi-Major Axis(m)": 6980739.136638005,
        "Time(s)": 90
    },
    {
        "Altitude(m)": 620665.8107814254,
        "Argument of Periapsis(deg)": 0.0010418945913296407,
        "Eccentricity": 0.0,
        "Inclination(deg)": 60.0,
        "Latitude(deg)": -48.300208291155265,
        "Longitude(deg)": -95.51866991809057,
        "Mean Anomaly(deg)": 300.74656145461836,
        "RAAN(deg)": 44.99579950860257,
        "Satellite Name": "Test1 216",
        "Satellite Number": 216,
        "Semi-Major Axis(m)": 6980739.136638005,
        "Time(s)": 100
    },
    {
        "Altitude(m)": 620499.3022512883,
        "Argument of Periapsis(deg)": 0.0011460840504626045,
        "Eccentricity": 0.0,
        "Inclination(deg)": 60.0,
        "Latitude(deg)": -47.888467629872906,
        "Longitude(deg)": -94.8711842370147,
        "Mean Anomaly(deg)": 301.3666676000801,
        "RAAN(deg)": 44.99537945946283,
        "Satellite Name": "Test1 216",
        "Satellite Number": 216,
        "Semi-Major Axis(m)": 6980739.136638005,
        "Time(s)": 110
    },
    {
        "Altitude(m)": 620330.66750774,
        "Argument of Periapsis(deg)": 0.0012502735095955685,
        "Eccentricity": 0.0,
        "Inclination(deg)": 60.0,
        "Latitude(deg)": -47.47261998496629,
        "Longitude(deg)": -94.23456297269021,
        "Mean Anomaly(deg)": 301.986773745542,
        "RAAN(deg)": 44.99495941032309,
        "Satellite Name": "Test1 216",
        "Satellite Number": 216,
        "Semi-Major Axis(m)": 6980739.136638005,
        "Time(s)": 120
    },
    {
        "Altitude(m)": 620159.9719958344,
        "Argument of Periapsis(deg)": 0.0013544629687285324,
        "Eccentricity": 0.0,
        "Inclination(deg)": 60.0,
        "Latitude(deg)": -47.05278582754508,
        "Longitude(deg)": -93.60858222904497,
        "Mean Anomaly(deg)": 302.6068798910038,
        "RAAN(deg)": 44.99453936118335,
        "Satellite Name": "Test1 216",
        "Satellite Number": 216,
        "Semi-Major Axis(m)": 6980739.136638005,
        "Time(s)": 130
    },
    {
        "Altitude(m)": 619987.2819122458,
        "Argument of Periapsis(deg)": 0.0014586524278614966,
        "Eccentricity": 0.0,
        "Inclination(deg)": 60.0,
        "Latitude(deg)": -46.62908217003365,
        "Longitude(deg)": -92.99301888231659,
        "Mean Anomaly(deg)": 303.22698603646563,
        "RAAN(deg)": 44.99411931204361,
        "Satellite Name": "Test1 216",
        "Satellite Number": 216,
        "Semi-Major Axis(m)": 6980739.136638005,
        "Time(s)": 140
    },
    {
        "Altitude(m)": 619812.6641767183,
        "Argument of Periapsis(deg)": 0.0015628418869944607,
        "Eccentricity": 0.0,
        "Inclination(deg)": 60.0,
        "Latitude(deg)": -46.20162263040472,
        "Longitude(deg)": -92.38765052272693,
        "Mean Anomaly(deg)": 303.8470921819274,
        "RAAN(deg)": 44.99369926290386,
        "Satellite Name": "Test1 216",
        "Satellite Number": 216,
        "Semi-Major Axis(m)": 6980739.136638005,
        "Time(s)": 150
    },
    {
        "Altitude(m)": 619636.1864031377,
        "Argument of Periapsis(deg)": 0.0016670313461274247,
        "Eccentricity": 0.0,
        "Inclination(deg)": 60.0,
        "Latitude(deg)": -45.77051750026062,
        "Longitude(deg)": -91.79225535152163,
        "Mean Anomaly(deg)": 304.46719832738927,
        "RAAN(deg)": 44.99327921376411,
        "Satellite Name": "Test1 216",
        "Satellite Number": 216,
        "Semi-Major Axis(m)": 6980739.136638005,
        "Time(s)": 160
    },
    {
        "Altitude(m)": 619457.9168703144,
        "Argument of Periapsis(deg)": 0.0017712208052603888,
        "Eccentricity": 0.0,
        "Inclination(deg)": 60.0,
        "Latitude(deg)": -45.33587381608529,
        "Longitude(deg)": -91.20661354909879,
        "Mean Anomaly(deg)": 305.0873044728511,
        "RAAN(deg)": 44.99285916462437,
        "Satellite Name": "Test1 216",
        "Satellite Number": 216,
        "Semi-Major Axis(m)": 6980739.136638005,
        "Time(s)": 170
    },
    {
        "Altitude(m)": 619277.9244924247,
        "Argument of Periapsis(deg)": 0.001875410264393353,
        "Eccentricity": 0.0,
        "Inclination(deg)": 60.0,
        "Latitude(deg)": -44.89779543305095,
        "Longitude(deg)": -90.63050709125037,
        "Mean Anomaly(deg)": 305.70741061831296,
        "RAAN(deg)": 44.99243911548463,
        "Satellite Name": "Test1 216",
        "Satellite Number": 216,
        "Semi-Major Axis(m)": 6980739.136638005,
        "Time(s)": 180
    },
    {
        "Altitude(m)": 619096.2787891693,
        "Argument of Periapsis(deg)": 0.0019795997235263173,
        "Eccentricity": 0.0,
        "Inclination(deg)": 60.0,
        "Latitude(deg)": -44.45638310082576,
        "Longitude(deg)": -90.06371952909501,
        "Mean Anomaly(deg)": 306.32751676377484,
        "RAAN(deg)": 44.99201906634489,
        "Satellite Name": "Test1 216",
        "Satellite Number": 216,
        "Semi-Major Axis(m)": 6980739.136638005,
        "Time(s)": 190
    }
]